{"type": "FeatureCollection", "features": [ {"type": "Feature", "properties": {"norad_id": 38755, "name": "SPOT 6", "group": "resource", "lat": 34.43109056407937, "lon": 43.39455779802183, "alt_km": 695.0808523629803, "timestamp": "2025-12-10T04:57:29.262506+00:00", "meta": {"OBJECT_NAME": "SPOT 6", "OBJECT_ID": "2012-047A", "EPOCH": "2025-12-09T20:34:01.186752", "MEAN_MOTION": 14.58598464, "ECCENTRICITY": 0.0001075, "INCLINATION": 98.1571, "RA_OF_ASC_NODE": 48.6941, "ARG_OF_PERICENTER": 95.8461, "MEAN_ANOMALY": 264.2861, "EPHEMERIS_TYPE": 0, "CLASSIFICATION_TYPE": "U", "NORAD_CAT_ID": 38755, "ELEMENT_SET_NO": 999, "REV_AT_EPOCH": 70545, "BSTAR": 0.00011492, "MEAN_MOTION_DOT": 4.89e-06, "MEAN_MOTION_DDOT": 0}, "tle": {"line1": "1 38755U 12047A   25343.85695818  .00000489  00000+0  11492-3 0  9999", "line2": "2 38755  98.1571  48.6941 0001075  95.8461 264.2861 14.58598464705453"}}, "geometry": {"type": "Point", "coordinates": [43.39455779802183, 34.43109056407937]}}, {"type": "Feature", "properties": {"norad_id": 39019, "name": "PLEIADES 1B", "group": "resource", "lat": -64.82437367491876, "lon": 74.71559864116492, "alt_km": 705.7886225262337, "timestamp": "2025-12-10T04:57:29.262517+00:00", "meta": {"OBJECT_NAME": "PLEIADES 1B", "OBJECT_ID": "2012-068A", "EPOCH": "2025-12-09T19:22:55.649856", "MEAN_MOTION": 14.58548194, "ECCENTRICITY": 0.000122, "INCLINATION": 98.1793, "RA_OF_ASC_NODE": 56.5053, "ARG_OF_PERICENTER": 80.7313, "MEAN_ANOMALY": 279.4025, "EPHEMERIS_TYPE": 0, "CLASSIFICATION_TYPE": "U", "NORAD_CAT_ID": 39019, "ELEMENT_SET_NO": 999, "REV_AT_EPOCH": 69324, "BSTAR": 0.00013448, "MEAN_MOTION_DOT": 5.8e-06, "MEAN_MOTION_DDOT": 0}, "tle": {"line1": "1 39019U 12068A   25343.80758854  .00000580  00000+0  13448-3 0  9996", "line2": "2 39019  98.1793  56.5053 0001220  80.7313 279.4025 14.58548194693244"}}, "geometry": {"type": "Point", "coordinates": [74.71559864116492, -64.82437367491876]}}, {"type": "Feature", "properties": {"norad_id": 39030, "name": "GOKTURK 2", "group": "resource", "lat": -3.1193512405519237, "lon": -173.59371474330194, "alt_km": 647.8116122570173, "timestamp": "2025-12-10T04:57:29.262527+00:00", "meta": {"OBJECT_NAME": "GOKTURK 2", "OBJECT_ID": "2012-073A", "EPOCH": "2025-12-09T20:50:00.184416", "MEAN_MOTION": 14.75286083, "ECCENTRICITY": 9.56e-05, "INCLINATION": 97.689, "RA_OF_ASC_NODE": 185.6627, "ARG_OF_PERICENTER": 101.1777, "MEAN_ANOMALY": 258.9541, "EPHEMERIS_TYPE": 0, "CLASSIFICATION_TYPE": "U", "NORAD_CAT_ID": 39030, "ELEMENT_SET_NO": 999, "REV_AT_EPOCH": 69659, "BSTAR": 0.00021127, "MEAN_MOTION_DOT": 1.383e-05, "MEAN_MOTION_DDOT": 0}, "tle": {"line1": "1 39030U 12073A   25343.86805769  .00001383  00000+0  21127-3 0  9994", "line2": "2 39030  97.6890 185.6627 0000956 101.1777 258.9541 14.75286083696598"}}, "geometry": {"type": "Point", "coordinates": [-173.59371474330194, -3.1193512405519237]}}, {"type": "Feature", "properties": {"norad_id": 39084, "name": "LANDSAT 8", "group": "resource", "lat": 61.73395817925819, "lon": -112.11158696870359, "alt_km": 695.821139256579, "timestamp": "2025-12-10T04:57:29.262538+00:00", "meta": {"OBJECT_NAME": "LANDSAT 8", "OBJECT_ID": "2013-008A", "EPOCH": "2025-12-09T18:32:03.482592", "MEAN_MOTION": 14.5710996, "ECCENTRICITY": 0.0001121, "INCLINATION": 98.2075, "RA_OF_ASC_NODE": 51.8895, "ARG_OF_PERICENTER": 87.4567, "MEAN_ANOMALY": 272.676, "EPHEMERIS_TYPE": 0, "CLASSIFICATION_TYPE": "U", "NORAD_CAT_ID": 39084, "ELEMENT_SET_NO": 999, "REV_AT_EPOCH": 67031, "BSTAR": 0.00018159, "MEAN_MOTION_DOT": 7.73e-06, "MEAN_MOTION_DDOT": 0}, "tle": {"line1": "1 39084U 13008A   25343.77226253  .00000773  00000+0  18159-3 0  9990", "line2": "2 39084  98.2075  51.8895 0001121  87.4567 272.6760 14.57109960670314"}}, "geometry": {"type": "Point", "coordinates": [-112.11158696870359, 61.73395817925819]}}, {"type": "Feature", "properties": {"norad_id": 39086, "name": "SARAL", "group": "resource", "lat": -35.1548369015461, "lon": 174.25192903580265, "alt_km": 790.4784936487185, "timestamp": "2025-12-10T04:57:29.262548+00:00", "meta": {"OBJECT_NAME": "SARAL", "OBJECT_ID": "2013-009A", "EPOCH": "2025-12-09T19:04:03.833184", "MEAN_MOTION": 14.32755625, "ECCENTRICITY": 0.000281, "INCLINATION": 98.5504, "RA_OF_ASC_NODE": 167.7634, "ARG_OF_PERICENTER": 114.2517, "MEAN_ANOMALY": 245.8961, "EPHEMERIS_TYPE": 0, "CLASSIFICATION_TYPE": "U", "NORAD_CAT_ID": 39086, "ELEMENT_SET_NO": 999, "REV_AT_EPOCH": 66848, "BSTAR": 0.00010554, "MEAN_MOTION_DOT": 2.44e-06, "MEAN_MOTION_DDOT": 0}, "tle": {"line1": "1 39086U 13009A   25343.79448881  .00000244  00000+0  10554-3 0  9992", "line2": "2 39086  98.5504 167.7634 0002810 114.2517 245.8961 14.32755625668482"}}, "geometry": {"type": "Point", "coordinates": [174.25192903580265, -35.1548369015461]}}, {"type": "Feature", "properties": {"norad_id": 39150, "name": "GAOFEN-1", "group": "resource", "lat": 62.313102522163, "lon": 39.499794079724964, "alt_km": 633.618193352162, "timestamp": "2025-12-10T04:57:29.262559+00:00", "meta": {"OBJECT_NAME": "GAOFEN-1", "OBJECT_ID": "2013-018A", "EPOCH": "2025-12-09T20:32:22.092000", "MEAN_MOTION": 14.76526134, "ECCENTRICITY": 0.0017981, "INCLINATION": 97.9326, "RA_OF_ASC_NODE": 54.5657, "ARG_OF_PERICENTER": 151.8334, "MEAN_ANOMALY": 208.3853, "EPHEMERIS_TYPE": 0, "CLASSIFICATION_TYPE": "U", "NORAD_CAT_ID": 39150, "ELEMENT_SET_NO": 999, "REV_AT_EPOCH": 68030, "BSTAR": 0.00017278, "MEAN_MOTION_DOT": 1.156e-05, "MEAN_MOTION_DDOT": 0}, "tle": {"line1": "1 39150U 13018A   25343.85581125  .00001156  00000+0  17278-3 0  9993", "line2": "2 39150  97.9326  54.5657 0017981 151.8334 208.3853 14.76526134680304"}}, "geometry": {"type": "Point", "coordinates": [39.499794079724964, 62.313102522163]}}, {"type": "Feature", "properties": {"norad_id": 39160, "name": "VNREDSAT 1", "group": "resource", "lat": -51.26422385135897, "lon": -150.44595187114655, "alt_km": 685.1242639051334, "timestamp": "2025-12-10T04:57:29.262569+00:00", "meta": {"OBJECT_NAME": "VNREDSAT 1", "OBJECT_ID": "2013-021B", "EPOCH": "2025-12-09T19:42:22.900032", "MEAN_MOTION": 14.64915794, "ECCENTRICITY": 0.0001315, "INCLINATION": 97.9372, "RA_OF_ASC_NODE": 39.198, "ARG_OF_PERICENTER": 78.3799, "MEAN_ANOMALY": 281.7552, "EPHEMERIS_TYPE": 0, "CLASSIFICATION_TYPE": "U", "NORAD_CAT_ID": 39160, "ELEMENT_SET_NO": 999, "REV_AT_EPOCH": 67256, "BSTAR": 0.00018533, "MEAN_MOTION_DOT": 9.45e-06, "MEAN_MOTION_DDOT": 0}, "tle": {"line1": "1 39160U 13021B   25343.82109838  .00000945  00000+0  18533-3 0  9992", "line2": "2 39160  97.9372  39.1980 0001315  78.3799 281.7552 14.64915794672567"}}, "geometry": {"type": "Point", "coordinates": [-150.44595187114655, -51.26422385135897]}}, {"type": "Feature", "properties": {"norad_id": 39227, "name": "ARIRANG-5 (KOMPSAT-5)", "group": "resource", "lat": -49.58429777963251, "lon": 177.58576834447445, "alt_km": 561.0133015873198, "timestamp": "2025-12-10T04:57:29.262580+00:00", "meta": {"OBJECT_NAME": "ARIRANG-5 (KOMPSAT-5)", "OBJECT_ID": "2013-042A", "EPOCH": "2025-12-09T19:36:12.410784", "MEAN_MOTION": 15.04486305, "ECCENTRICITY": 0.0003927, "INCLINATION": 97.6143, "RA_OF_ASC_NODE": 168.1633, "ARG_OF_PERICENTER": 63.1381, "MEAN_ANOMALY": 297.0246, "EPHEMERIS_TYPE": 0, "CLASSIFICATION_TYPE": "U", "NORAD_CAT_ID": 39227, "ELEMENT_SET_NO": 999, "REV_AT_EPOCH": 67538, "BSTAR": 0.00023214, "MEAN_MOTION_DOT": 3.188e-05, "MEAN_MOTION_DDOT": 0}, "tle": {"line1": "1 39227U 13042A   25343.81681031  .00003188  00000+0  23214-3 0  9992", "line2": "2 39227  97.6143 168.1633 0003927  63.1381 297.0246 15.04486305675381"}}, "geometry": {"type": "Point", "coordinates": [177.58576834447445, -49.58429777963251]}}, {"type": "Feature", "properties": {"norad_id": 39418, "name": "SKYSAT-A", "group": "resource", "lat": -76.37261613127028, "lon": -177.980885309795, "alt_km": 524.7744121929372, "timestamp": "2025-12-10T04:57:29.262590+00:00", "meta": {"OBJECT_NAME": "SKYSAT-A", "OBJECT_ID": "2013-066C", "EPOCH": "2025-12-09T16:41:44.729376", "MEAN_MOTION": 15.11568128, "ECCENTRICITY": 0.0020687, "INCLINATION": 97.4109, "RA_OF_ASC_NODE": 33.9964, "ARG_OF_PERICENTER": 247.9762, "MEAN_ANOMALY": 111.9271, "EPHEMERIS_TYPE": 0, "CLASSIFICATION_TYPE": "U", "NORAD_CAT_ID": 39418, "ELEMENT_SET_NO": 999, "REV_AT_EPOCH": 65984, "BSTAR": 0.00038112, "MEAN_MOTION_DOT": 6.436e-05, "MEAN_MOTION_DDOT": 0}, "tle": {"line1": "1 39418U 13066C   25343.69565659  .00006436  00000+0  38112-3 0  9995", "line2": "2 39418  97.4109  33.9964 0020687 247.9762 111.9271 15.11568128659843"}}, "geometry": {"type": "Point", "coordinates": [-177.980885309795, -76.37261613127028]}}, {"type": "Feature", "properties": {"norad_id": 39419, "name": "DUBAISAT-2", "group": "resource", "lat": 68.88478144607852, "lon": -45.10139090138566, "alt_km": 535.9986281995507, "timestamp": "2025-12-10T04:57:29.262600+00:00", "meta": {"OBJECT_NAME": "DUBAISAT-2", "OBJECT_ID": "2013-066D", "EPOCH": "2025-12-09T20:41:14.733312", "MEAN_MOTION": 15.08309774, "ECCENTRICITY": 0.0010951, "INCLINATION": 97.445, "RA_OF_ASC_NODE": 334.3575, "ARG_OF_PERICENTER": 331.3312, "MEAN_ANOMALY": 28.7313, "EPHEMERIS_TYPE": 0, "CLASSIFICATION_TYPE": "U", "NORAD_CAT_ID": 39419, "ELEMENT_SET_NO": 999, "REV_AT_EPOCH": 65783, "BSTAR": 0.00040604, "MEAN_MOTION_DOT": 6.248e-05, "MEAN_MOTION_DDOT": 0}, "tle": {"line1": "1 39419U 13066D   25343.86197608  .00006248  00000+0  40604-3 0  9990", "line2": "2 39419  97.4450 334.3575 0010951 331.3312  28.7313 15.08309774657836"}}, "geometry": {"type": "Point", "coordinates": [-45.10139090138566, 68.88478144607852]}}]}